start=new Date('2022-11-16T00:00:00.000Z').valueOf();
sats=[{"NORAD_CAT_ID":"51728","EPOCH":"2022-11-15T19:10:59.623680","MEAN_ANOMALY":"320.5494","DECAY_DATE":null,"BSTAR":"0.00001046700000","TLE_LINE2":"2 51728  53.2202 350.5358 0002568  39.5685 320.5494 15.08825138 40917","FILE":"3657961","RA_OF_ASC_NODE":"350.5358","REV_AT_EPOCH":"4091","SITE":"AFETR","PERIAPSIS":"538.014","APOAPSIS":"541.567","TIME_SYSTEM":"UTC","REF_FRAME":"TEME","OBJECT_TYPE":"PAYLOAD","GP_ID":"217906862","COUNTRY_CODE":"US","CENTER_NAME":"EARTH","ELEMENT_SET_NO":"999","MEAN_MOTION_DOT":"-0.00000122","MEAN_ELEMENT_THEORY":"SGP4","CLASSIFICATION_TYPE":"U","EPHEMERIS_TYPE":"0","INCLINATION":"53.2202","TLE_LINE1":"1 51728U 22016Q   22319.79930120 -.00000122  00000-0  10467-4 0  9990","ARG_OF_PERICENTER":"39.5685","ECCENTRICITY":"0.00025680","MEAN_MOTION_DDOT":"0.0000000000000","MEAN_MOTION":"15.08825138","SEMIMAJOR_AXIS":"6917.926","LAUNCH_DATE":"2022-02-21","OBJECT_NAME":"STARLINK-3448","RCS_SIZE":"LARGE","PERIOD":"95.438","OBJECT_ID":"2022-016Q"},{"MEAN_ELEMENT_THEORY":"SGP4","INCLINATION":"53.2195","CLASSIFICATION_TYPE":"U","EPHEMERIS_TYPE":"0","ECCENTRICITY":"0.00028180","ARG_OF_PERICENTER":"29.6527","TLE_LINE1":"1 51729U 22016R   22319.47912614  .00002195  00000-0  15598-3 0  9994","MEAN_MOTION_DDOT":"0.0000000000000","SEMIMAJOR_AXIS":"6917.889","MEAN_MOTION":"15.08837319","RCS_SIZE":"LARGE","OBJECT_NAME":"STARLINK-3523","LAUNCH_DATE":"2022-02-21","OBJECT_ID":"2022-016R","PERIOD":"95.438","DECAY_DATE":null,"EPOCH":"2022-11-15T11:29:56.498496","MEAN_ANOMALY":"330.4625","NORAD_CAT_ID":"51729","BSTAR":"0.00015598000000","TLE_LINE2":"2 51729  53.2195 351.9699 0002818  29.6527 330.4625 15.08837319 41994","FILE":"3657680","RA_OF_ASC_NODE":"351.9699","SITE":"AFETR","REV_AT_EPOCH":"4199","APOAPSIS":"541.703","PERIAPSIS":"537.804","REF_FRAME":"TEME","TIME_SYSTEM":"UTC","COUNTRY_CODE":"US","CENTER_NAME":"EARTH","ELEMENT_SET_NO":"999","GP_ID":"217877102","OBJECT_TYPE":"PAYLOAD","MEAN_MOTION_DOT":"0.00002195"},{"LAUNCH_DATE":"2022-02-21","OBJECT_NAME":"STARLINK-3530","RCS_SIZE":"LARGE","PERIOD":"95.438","OBJECT_ID":"2022-016S","MEAN_MOTION_DDOT":"0.0000000000000","MEAN_MOTION":"15.08840721","SEMIMAJOR_AXIS":"6917.878","TLE_LINE1":"1 51730U 22016S   22319.79193169  .00002552  00000-0  17839-3 0  9994","ARG_OF_PERICENTER":"27.9626","ECCENTRICITY":"0.00025030","MEAN_ELEMENT_THEORY":"SGP4","EPHEMERIS_TYPE":"0","CLASSIFICATION_TYPE":"U","INCLINATION":"53.2161","OBJECT_TYPE":"PAYLOAD","GP_ID":"217905861","CENTER_NAME":"EARTH","COUNTRY_CODE":"US","ELEMENT_SET_NO":"999","MEAN_MOTION_DOT":"0.00002552","PERIAPSIS":"538.012","APOAPSIS":"541.475","REF_FRAME":"TEME","TIME_SYSTEM":"UTC","TLE_LINE2":"2 51730  53.2161 350.5776 0002503  27.9626 332.1500 15.08840721 40915","FILE":"3657961","RA_OF_ASC_NODE":"350.5776","REV_AT_EPOCH":"4091","SITE":"AFETR","NORAD_CAT_ID":"51730","MEAN_ANOMALY":"332.1500","EPOCH":"2022-11-15T19:00:22.898016","DECAY_DATE":null,"BSTAR":"0.00017839000000"},{"MEAN_MOTION_DDOT":"0.0000000000000","SEMIMAJOR_AXIS":"6917.870","MEAN_MOTION":"15.08843249","OBJECT_NAME":"STARLINK-3514","RCS_SIZE":"LARGE","LAUNCH_DATE":"2022-02-21","OBJECT_ID":"2022-016T","PERIOD":"95.437","MEAN_ELEMENT_THEORY":"SGP4","INCLINATION":"53.2175","CLASSIFICATION_TYPE":"U","EPHEMERIS_TYPE":"0","ECCENTRICITY":"0.00023900","ARG_OF_PERICENTER":"33.9901","TLE_LINE1":"1 51731U 22016T   22319.80297150  .00001902  00000-0  13757-3 0  9995","APOAPSIS":"541.389","PERIAPSIS":"538.082","TIME_SYSTEM":"UTC","REF_FRAME":"TEME","COUNTRY_CODE":"US","CENTER_NAME":"EARTH","ELEMENT_SET_NO":"999","GP_ID":"217906111","OBJECT_TYPE":"PAYLOAD","MEAN_MOTION_DOT":"0.00001902","DECAY_DATE":null,"EPOCH":"2022-11-15T19:16:16.737600","MEAN_ANOMALY":"326.1244","NORAD_CAT_ID":"51731","BSTAR":"0.00013757000000","RA_OF_ASC_NODE":"350.5200","TLE_LINE2":"2 51731  53.2175 350.5200 0002390  33.9901 326.1244 15.08843249 40916","FILE":"3657961","SITE":"AFETR","REV_AT_EPOCH":"4091"},{"LAUNCH_DATE":"2022-02-21","OBJECT_NAME":"STARLINK-3518","RCS_SIZE":"LARGE","OBJECT_ID":"2022-016U","PERIOD":"95.438","MEAN_MOTION_DDOT":"0.0000000000000","MEAN_MOTION":"15.08837600","SEMIMAJOR_AXIS":"6917.888","ARG_OF_PERICENTER":"32.4282","ECCENTRICITY":"0.00023280","TLE_LINE1":"1 51732U 22016U   22319.78825299  .00000696  00000-0  61823-4 0  9991","MEAN_ELEMENT_THEORY":"SGP4","INCLINATION":"53.2176","EPHEMERIS_TYPE":"0","CLASSIFICATION_TYPE":"U","GP_ID":"217906363","COUNTRY_CODE":"US","ELEMENT_SET_NO":"999","CENTER_NAME":"EARTH","OBJECT_TYPE":"PAYLOAD","MEAN_MOTION_DOT":"0.00000696","PERIAPSIS":"538.142","APOAPSIS":"541.363","REF_FRAME":"TEME","TIME_SYSTEM":"UTC","TLE_LINE2":"2 51732  53.2176 350.5960 0002328  32.4282 327.6853 15.08837600 42051","RA_OF_ASC_NODE":"350.5960","FILE":"3657961","SITE":"AFETR","REV_AT_EPOCH":"4205","DECAY_DATE":null,"NORAD_CAT_ID":"51732","EPOCH":"2022-11-15T18:55:05.058336","MEAN_ANOMALY":"327.6853","BSTAR":"0.00006182300000"},{"LAUNCH_DATE":"2022-02-21","OBJECT_NAME":"STARLINK-3525","RCS_SIZE":"LARGE","PERIOD":"95.439","OBJECT_ID":"2022-016V","MEAN_MOTION_DDOT":"0.0000000000000","MEAN_MOTION":"15.08822845","SEMIMAJOR_AXIS":"6917.933","TLE_LINE1":"1 51733U 22016V   22319.86186608 -.00000800  00000-0 -32156-4 0  9991","ARG_OF_PERICENTER":"32.1928","ECCENTRICITY":"0.00025690","MEAN_ELEMENT_THEORY":"SGP4","CLASSIFICATION_TYPE":"U","EPHEMERIS_TYPE":"0","INCLINATION":"53.2183","OBJECT_TYPE":"PAYLOAD","GP_ID":"217907113","COUNTRY_CODE":"US","ELEMENT_SET_NO":"999","CENTER_NAME":"EARTH","MEAN_MOTION_DOT":"-0.00000800","PERIAPSIS":"538.021","APOAPSIS":"541.575","REF_FRAME":"TEME","TIME_SYSTEM":"UTC","TLE_LINE2":"2 51733  53.2183 350.2547 0002569  32.1928 327.9221 15.08822845 40920","FILE":"3657961","RA_OF_ASC_NODE":"350.2547","REV_AT_EPOCH":"4092","SITE":"AFETR","NORAD_CAT_ID":"51733","EPOCH":"2022-11-15T20:41:05.229312","MEAN_ANOMALY":"327.9221","DECAY_DATE":null,"BSTAR":"-0.00003215600000"},{"MEAN_ELEMENT_THEORY":"SGP4","CLASSIFICATION_TYPE":"U","EPHEMERIS_TYPE":"0","INCLINATION":"53.2181","TLE_LINE1":"1 51734U 22016W   22319.51224886  .00001306  00000-0  10021-3 0  9991","ARG_OF_PERICENTER":"28.3692","ECCENTRICITY":"0.00025860","MEAN_MOTION_DDOT":"0.0000000000000","MEAN_MOTION":"15.08832045","SEMIMAJOR_AXIS":"6917.905","LAUNCH_DATE":"2022-02-21","OBJECT_NAME":"STARLINK-3450","RCS_SIZE":"LARGE","PERIOD":"95.438","OBJECT_ID":"2022-016W","NORAD_CAT_ID":"51734","EPOCH":"2022-11-15T12:17:38.301504","MEAN_ANOMALY":"331.7440","DECAY_DATE":null,"BSTAR":"0.00010021000000","TLE_LINE2":"2 51734  53.2181 351.8269 0002586  28.3692 331.7440 15.08832045 41976","RA_OF_ASC_NODE":"351.8269","FILE":"3657677","REV_AT_EPOCH":"4197","SITE":"AFETR","PERIAPSIS":"537.981","APOAPSIS":"541.559","TIME_SYSTEM":"UTC","REF_FRAME":"TEME","OBJECT_TYPE":"PAYLOAD","GP_ID":"217877218","COUNTRY_CODE":"US","ELEMENT_SET_NO":"999","CENTER_NAME":"EARTH","MEAN_MOTION_DOT":"0.00001306"},{"ARG_OF_PERICENTER":"35.4223","ECCENTRICITY":"0.00023440","TLE_LINE1":"1 51735U 22016X   22319.78457727 -.00000080  00000-0  13118-4 0  9993","INCLINATION":"53.2166","EPHEMERIS_TYPE":"0","CLASSIFICATION_TYPE":"U","MEAN_ELEMENT_THEORY":"SGP4","OBJECT_ID":"2022-016X","PERIOD":"95.438","LAUNCH_DATE":"2022-02-21","OBJECT_NAME":"STARLINK-3517","RCS_SIZE":"LARGE","MEAN_MOTION":"15.08831427","SEMIMAJOR_AXIS":"6917.907","MEAN_MOTION_DDOT":"0.0000000000000","SITE":"AFETR","REV_AT_EPOCH":"4091","TLE_LINE2":"2 51735  53.2166 350.6066 0002344  35.4223 324.6924 15.08831427 40917","FILE":"3657961","RA_OF_ASC_NODE":"350.6066","BSTAR":"0.00001311800000","DECAY_DATE":null,"NORAD_CAT_ID":"51735","MEAN_ANOMALY":"324.6924","EPOCH":"2022-11-15T18:49:47.476128","MEAN_MOTION_DOT":"-0.00000080","GP_ID":"217905612","ELEMENT_SET_NO":"999","COUNTRY_CODE":"US","CENTER_NAME":"EARTH","OBJECT_TYPE":"PAYLOAD","REF_FRAME":"TEME","TIME_SYSTEM":"UTC","PERIAPSIS":"538.150","APOAPSIS":"541.393"},{"TIME_SYSTEM":"UTC","REF_FRAME":"TEME","PERIAPSIS":"537.976","APOAPSIS":"541.518","MEAN_MOTION_DOT":"0.00002288","GP_ID":"217846775","COUNTRY_CODE":"US","ELEMENT_SET_NO":"999","CENTER_NAME":"EARTH","OBJECT_TYPE":"PAYLOAD","BSTAR":"0.00016181000000","DECAY_DATE":null,"NORAD_CAT_ID":"51736","MEAN_ANOMALY":"324.6234","EPOCH":"2022-11-15T08:56:16.433952","SITE":"AFETR","REV_AT_EPOCH":"4084","TLE_LINE2":"2 51736  53.2171 352.4411 0002560  35.4928 324.6234 15.08839619 40847","RA_OF_ASC_NODE":"352.4411","FILE":"3657603","MEAN_MOTION":"15.08839619","SEMIMAJOR_AXIS":"6917.882","MEAN_MOTION_DDOT":"0.0000000000000","OBJECT_ID":"2022-016Y","PERIOD":"95.438","LAUNCH_DATE":"2022-02-21","RCS_SIZE":"LARGE","OBJECT_NAME":"STARLINK-3447","INCLINATION":"53.2171","CLASSIFICATION_TYPE":"U","EPHEMERIS_TYPE":"0","MEAN_ELEMENT_THEORY":"SGP4","ARG_OF_PERICENTER":"35.4928","ECCENTRICITY":"0.00025600","TLE_LINE1":"1 51736U 22016Y   22319.37241243  .00002288  00000-0  16181-3 0  9996"},{"MEAN_MOTION_DDOT":"0.0000000000000","SEMIMAJOR_AXIS":"6917.868","MEAN_MOTION":"15.08844116","OBJECT_NAME":"STARLINK-3509","RCS_SIZE":"LARGE","LAUNCH_DATE":"2022-02-21","PERIOD":"95.437","OBJECT_ID":"2022-016Z","MEAN_ELEMENT_THEORY":"SGP4","CLASSIFICATION_TYPE":"U","EPHEMERIS_TYPE":"0","INCLINATION":"53.2185","TLE_LINE1":"1 51737U 22016Z   22319.78088983  .00003623  00000-0  24561-3 0  9997","ECCENTRICITY":"0.00025030","ARG_OF_PERICENTER":"32.6811","APOAPSIS":"541.464","PERIAPSIS":"538.001","REF_FRAME":"TEME","TIME_SYSTEM":"UTC","OBJECT_TYPE":"PAYLOAD","CENTER_NAME":"EARTH","COUNTRY_CODE":"US","ELEMENT_SET_NO":"999","GP_ID":"217906614","MEAN_MOTION_DOT":"0.00003623","EPOCH":"2022-11-15T18:44:28.881312","MEAN_ANOMALY":"327.4335","NORAD_CAT_ID":"51737","DECAY_DATE":null,"BSTAR":"0.00024561000000","FILE":"3657961","TLE_LINE2":"2 51737  53.2185 350.6124 0002503  32.6811 327.4335 15.08844116 40909","RA_OF_ASC_NODE":"350.6124","REV_AT_EPOCH":"4090","SITE":"AFETR"}];
